sat37152
1 37152U 10043A   20046.74556418  .00000025  00000-0  10740-3 0  9990
2 37152  82.4543  72.0535 0002338 132.4059 227.7219 12.42892357428151
